{
  "type": "FeatureCollection",
  "features": [
    {
      "type": "Feature",
      "properties": {
        "norad_id": 37427,
        "name": "FENGYUN 1C DEB",
        "group": "fengyun-1c-debris",
        "lat": -15.229283334674873,
        "lon": 128.94684496165956,
        "alt_km": 477.324699533935,
        "timestamp": "2025-12-10T21:43:22.377042+00:00",
        "meta_object_name": "FENGYUN 1C DEB",
        "meta_object_id": "1999-025EGV",
        "meta_epoch": "2025-11-25T03:26:10.747680",
        "meta_mean_motion": 14.97768919,
        "meta_eccentricity": 0.01887185,
        "meta_inclination": 98.6232,
        "meta_ra_of_asc_node": 109.1733,
        "meta_arg_of_pericenter": 355.7363,
        "meta_mean_anomaly": 4.2239,
        "meta_ephemeris_type": 0,
        "meta_classification_type": "U",
        "meta_norad_cat_id": 37427,
        "meta_element_set_no": 999,
        "meta_rev_at_epoch": 60059,
        "meta_bstar": 0.00046451943,
        "meta_mean_motion_dot": 7.8e-05,
        "meta_mean_motion_ddot": 0,
        "tle_line1": "1 37427U 99025EGV 25329.14317995  .00007800  00000+0  46452-3 0  9996",
        "tle_line2": "2 37427  98.6232 109.1733 0188718 355.7363   4.2239 14.97768919600595"
      },
      "geometry": {
        "type": "Point",
        "coordinates": [
          128.94684496165956,
          -15.229283334674873
        ]
      }
    },
    {
      "type": "Feature",
      "properties": {
        "norad_id": 37428,
        "name": "FENGYUN 1C DEB",
        "group": "fengyun-1c-debris",
        "lat": -57.98468890427138,
        "lon": 15.221502551631952,
        "alt_km": 811.8026724041465,
        "timestamp": "2025-12-10T21:43:22.377052+00:00",
        "meta_object_name": "FENGYUN 1C DEB",
        "meta_object_id": "1999-025EGW",
        "meta_epoch": "2025-12-08T08:21:22.529088",
        "meta_mean_motion": 14.34566274,
        "meta_eccentricity": 0.00566929,
        "meta_inclination": 97.7218,
        "meta_ra_of_asc_node": 205.4682,
        "meta_arg_of_pericenter": 112.0181,
        "meta_mean_anomaly": 248.7043,
        "meta_ephemeris_type": 0,
        "meta_classification_type": "U",
        "meta_norad_cat_id": 37428,
        "meta_element_set_no": 999,
        "meta_rev_at_epoch": 63373,
        "meta_bstar": 0.0023264608,
        "meta_mean_motion_dot": 6.657e-05,
        "meta_mean_motion_ddot": 0,
        "tle_line1": "1 37428U 99025EGW 25342.34817742  .00006657  00000+0  23265-2 0  9994",
        "tle_line2": "2 37428  97.7218 205.4682 0056692 112.0181 248.7043 14.34566274633731"
      },
      "geometry": {
        "type": "Point",
        "coordinates": [
          15.221502551631952,
          -57.98468890427138
        ]
      }
    },
    {
      "type": "Feature",
      "properties": {
        "norad_id": 37430,
        "name": "FENGYUN 1C DEB",
        "group": "fengyun-1c-debris",
        "lat": -11.581705069703288,
        "lon": 60.81368992436339,
        "alt_km": 799.1183782568005,
        "timestamp": "2025-12-10T21:43:22.377063+00:00",
        "meta_object_name": "FENGYUN 1C DEB",
        "meta_object_id": "1999-025EGY",
        "meta_epoch": "2025-12-05T03:58:16.719456",
        "meta_mean_motion": 14.28846273,
        "meta_eccentricity": 0.001883,
        "meta_inclination": 98.7668,
        "meta_ra_of_asc_node": 53.2332,
        "meta_arg_of_pericenter": 93.5332,
        "meta_mean_anomaly": 266.8003,
        "meta_ephemeris_type": 0,
        "meta_classification_type": "U",
        "meta_norad_cat_id": 37430,
        "meta_element_set_no": 999,
        "meta_rev_at_epoch": 61593,
        "meta_bstar": 0.0038447795,
        "meta_mean_motion_dot": 9.683e-05,
        "meta_mean_motion_ddot": 0,
        "tle_line1": "1 37430U 99025EGY 25339.16547129  .00009683  00000+0  38448-2 0  9993",
        "tle_line2": "2 37430  98.7668  53.2332 0018830  93.5332 266.8003 14.28846273615930"
      },
      "geometry": {
        "type": "Point",
        "coordinates": [
          60.81368992436339,
          -11.581705069703288
        ]
      }
    },
    {
      "type": "Feature",
      "properties": {
        "norad_id": 37432,
        "name": "FENGYUN 1C DEB",
        "group": "fengyun-1c-debris",
        "lat": -77.51009068673895,
        "lon": 137.69659921776505,
        "alt_km": 612.9741971797339,
        "timestamp": "2025-12-10T21:43:22.377094+00:00",
        "meta_object_name": "FENGYUN 1C DEB",
        "meta_object_id": "1999-025EHA",
        "meta_epoch": "2025-12-09T18:04:39.857376",
        "meta_mean_motion": 14.53394088,
        "meta_eccentricity": 0.01821829,
        "meta_inclination": 98.1846,
        "meta_ra_of_asc_node": 357.0924,
        "meta_arg_of_pericenter": 297.219,
        "meta_mean_anomaly": 61.0544,
        "meta_ephemeris_type": 0,
        "meta_classification_type": "U",
        "meta_norad_cat_id": 37432,
        "meta_element_set_no": 999,
        "meta_rev_at_epoch": 8333,
        "meta_bstar": 0.001422411,
        "meta_mean_motion_dot": 7.326e-05,
        "meta_mean_motion_ddot": 0,
        "tle_line1": "1 37432U 99025EHA 25343.75323909  .00007326  00000+0  14224-2 0  9991",
        "tle_line2": "2 37432  98.1846 357.0924 0182182 297.2190  61.0544 14.53394088 83331"
      },
      "geometry": {
        "type": "Point",
        "coordinates": [
          137.69659921776505,
          -77.51009068673895
        ]
      }
    },
    {
      "type": "Feature",
      "properties": {
        "norad_id": 37435,
        "name": "FENGYUN 1C DEB",
        "group": "fengyun-1c-debris",
        "lat": 20.619005985548092,
        "lon": 17.96686636778863,
        "alt_km": 788.2193721790554,
        "timestamp": "2025-12-10T21:43:22.377108+00:00",
        "meta_object_name": "FENGYUN 1C DEB",
        "meta_object_id": "1999-025EHD",
        "meta_epoch": "2025-12-09T08:28:59.535840",
        "meta_mean_motion": 14.22339891,
        "meta_eccentricity": 0.00404486,
        "meta_inclination": 98.648,
        "meta_ra_of_asc_node": 19.7275,
        "meta_arg_of_pericenter": 24.2253,
        "meta_mean_anomaly": 336.0816,
        "meta_ephemeris_type": 0,
        "meta_classification_type": "U",
        "meta_norad_cat_id": 37435,
        "meta_element_set_no": 999,
        "meta_rev_at_epoch": 88891,
        "meta_bstar": 0.0015347361,
        "meta_mean_motion_dot": 3.4e-05,
        "meta_mean_motion_ddot": 0,
        "tle_line1": "1 37435U 99025EHD 25343.35346685  .00003400  00000+0  15347-2 0  9992",
        "tle_line2": "2 37435  98.6480  19.7275 0040448  24.2253 336.0816 14.22339891888911"
      },
      "geometry": {
        "type": "Point",
        "coordinates": [
          17.96686636778863,
          20.619005985548092
        ]
      }
    },
    {
      "type": "Feature",
      "properties": {
        "norad_id": 37436,
        "name": "FENGYUN 1C DEB",
        "group": "fengyun-1c-debris",
        "lat": -33.15868301522463,
        "lon": -146.48122964632861,
        "alt_km": 856.4083948521811,
        "timestamp": "2025-12-10T21:43:22.377118+00:00",
        "meta_object_name": "FENGYUN 1C DEB",
        "meta_object_id": "1999-025EHE",
        "meta_epoch": "2025-12-08T08:57:07.720992",
        "meta_mean_motion": 14.06336267,
        "meta_eccentricity": 0.00596162,
        "meta_inclination": 98.9375,
        "meta_ra_of_asc_node": 36.9205,
        "meta_arg_of_pericenter": 160.2305,
        "meta_mean_anomaly": 200.1192,
        "meta_ephemeris_type": 0,
        "meta_classification_type": "U",
        "meta_norad_cat_id": 37436,
        "meta_element_set_no": 999,
        "meta_rev_at_epoch": 63937,
        "meta_bstar": 0.0011550832,
        "meta_mean_motion_dot": 1.893e-05,
        "meta_mean_motion_ddot": 0,
        "tle_line1": "1 37436U 99025EHE 25342.37300603  .00001893  00000+0  11551-2 0  9991",
        "tle_line2": "2 37436  98.9375  36.9205 0059616 160.2305 200.1192 14.06336267639376"
      },
      "geometry": {
        "type": "Point",
        "coordinates": [
          -146.48122964632861,
          -33.15868301522463
        ]
      }
    },
    {
      "type": "Feature",
      "properties": {
        "norad_id": 37437,
        "name": "FENGYUN 1C DEB",
        "group": "fengyun-1c-debris",
        "lat": 47.84314225216859,
        "lon": -32.76356870199966,
        "alt_km": 743.5765250410395,
        "timestamp": "2025-12-10T21:43:22.377128+00:00",
        "meta_object_name": "FENGYUN 1C DEB",
        "meta_object_id": "1999-025EHF",
        "meta_epoch": "2025-11-30T18:36:25.322976",
        "meta_mean_motion": 14.18810149,
        "meta_eccentricity": 0.0113368,
        "meta_inclination": 98.5859,
        "meta_ra_of_asc_node": 327.0314,
        "meta_arg_of_pericenter": 82.7284,
        "meta_mean_anomaly": 94.5607,
        "meta_ephemeris_type": 0,
        "meta_classification_type": "U",
        "meta_norad_cat_id": 37437,
        "meta_element_set_no": 999,
        "meta_rev_at_epoch": 63821,
        "meta_bstar": 0.0004989187,
        "meta_mean_motion_dot": 1.064e-05,
        "meta_mean_motion_ddot": 0,
        "tle_line1": "1 37437U 99025EHF 25334.77529309  .00001064  00000+0  49892-3 0  9993",
        "tle_line2": "2 37437  98.5859 327.0314 0113368  82.7284  94.5607 14.18810149638211"
      },
      "geometry": {
        "type": "Point",
        "coordinates": [
          -32.76356870199966,
          47.84314225216859
        ]
      }
    }
  ]
}